ALOS (DAICHI)           
1 28931U 06002A   25351.73419158  .00001110  00000+0  19545-3 0  9994
2 28931  98.1098 303.1864 0001361 113.5739 246.5610 14.69501788 61443
H-2A R/B                
1 28932U 06002B   25352.92932678  .00009015  00000+0  47311-3 0  9998
2 28932  98.2320 128.1837 0054661 155.4515 204.9335 15.14691424 82203
RESURS-DK 1             
1 29228U 06021A   25352.65145689  .00002114  00000+0  12835-3 0  9992
2 29228  69.9338  86.5605 0006884 254.5298 105.5108 15.12193236 75278
CZ-4B R/B               
1 29507U 06046C   25352.64394935  .00003777  00000+0  19789-3 0  9999
2 29507  97.5729  32.7668 0033773 185.7707 174.3142 15.15930087 47769
CZ-2C R/B               
1 31114U 07010B   25352.91853578  .00000106  00000+0  67592-4 0  9990
2 31114  98.3976 105.2584 0059344 168.0149 192.2457 14.20212299968255
COSMO-SKYMED 1          
1 31598U 07023A   25352.94258200  .00003472  00000+0  31631-3 0  9997
2 31598  97.8835 178.3823 0001578  86.3856 273.7545 14.95812660  2835
COSMOS 2428             
1 31792U 07029A   25352.47299113  .00000147  00000+0  10465-3 0  9993
2 31792  70.9365  13.8422 0003994  15.3964 344.7278 14.12891781952628
SL-16 R/B               
1 31793U 07029B   25352.41676458  .00000137  00000+0  95867-4 0  9998
2 31793  70.9756 343.2237 0001965 261.7919 250.2850 14.14815440953875
KORONAS-FOTON           
1 33504U 09003A   25352.79236609  .00007867  00000+0  18736-3 0  9991
2 33504  82.4303 359.8335 0013432  89.5767 270.7018 15.41317701933277
CZ-2C R/B               
1 37731U 11030B   25352.87726738  .00001112  00000+0  14761-3 0  9997
2 37731  97.8421 306.8482 0051360 253.0722 166.9203 14.80920600778134
H-2A R/B                
1 38341U 12025E   25352.86645538  .00001763  00000+0  16666-3 0  9995
2 38341  98.4605 308.5691 0044132 215.9152 143.9098 14.94485158736148
SHIJIAN-16 (SJ-16)      
1 39358U 13057A   25352.97249192  .00000626  00000+0  64499-4 0  9993
2 39358  74.9728 337.8619 0017783 305.2834  54.6690 14.91998782659463
